{"type": "FeatureCollection", "features": [ {"type": "Feature", "properties": {"norad_id": 34833, "name": "IRIDIUM 33 DEB", "group": "iridium-33-debris", "lat": -42.69523138755462, "lon": -124.23347629394534, "alt_km": 731.0067173303823, "timestamp": "2025-12-09T09:46:48.030861+00:00", "meta": {"OBJECT_NAME": "IRIDIUM 33 DEB", "OBJECT_ID": "1997-051MH", "EPOCH": "2025-12-08T23:05:30.624000", "MEAN_MOTION": 14.52340572, "ECCENTRICITY": 0.0021784, "INCLINATION": 86.3932, "RA_OF_ASC_NODE": 52.6222, "ARG_OF_PERICENTER": 110.1341, "MEAN_ANOMALY": 305.4079, "EPHEMERIS_TYPE": 0, "CLASSIFICATION_TYPE": "U", "NORAD_CAT_ID": 34833, "ELEMENT_SET_NO": 999, "REV_AT_EPOCH": 87660, "BSTAR": 0.00097622, "MEAN_MOTION_DOT": 4.003e-05, "MEAN_MOTION_DDOT": 0}, "tle": {"line1": "1 34833U 97051MH  25342.96216000  .00004003  00000+0  97622-3 0  9998", "line2": "2 34833  86.3932  52.6222 0021784 110.1341 305.4079 14.52340572876604"}}, "geometry": {"type": "Point", "coordinates": [-124.23347629394534, -42.69523138755462]}}, {"type": "Feature", "properties": {"norad_id": 34870, "name": "IRIDIUM 33 DEB", "group": "iridium-33-debris", "lat": -85.27889488696404, "lon": -172.9950300672425, "alt_km": 644.8916043944491, "timestamp": "2025-12-09T09:46:48.030872+00:00", "meta": {"OBJECT_NAME": "IRIDIUM 33 DEB", "OBJECT_ID": "1997-051MQ", "EPOCH": "2025-12-07T16:41:29.147136", "MEAN_MOTION": 14.76272854, "ECCENTRICITY": 0.00154972, "INCLINATION": 86.3098, "RA_OF_ASC_NODE": 316.3932, "ARG_OF_PERICENTER": 201.8058, "MEAN_ANOMALY": 332.1989, "EPHEMERIS_TYPE": 0, "CLASSIFICATION_TYPE": "U", "NORAD_CAT_ID": 34870, "ELEMENT_SET_NO": 999, "REV_AT_EPOCH": 88836, "BSTAR": 0.0021061979, "MEAN_MOTION_DOT": 0.00014658, "MEAN_MOTION_DDOT": 0}, "tle": {"line1": "1 34870U 97051MQ  25341.69547624  .00014658  00000+0  21062-2 0  9998", "line2": "2 34870  86.3098 316.3932 0015497 201.8058 332.1989 14.76272854888369"}}, "geometry": {"type": "Point", "coordinates": [-172.9950300672425, -85.27889488696404]}}, {"type": "Feature", "properties": {"norad_id": 34896, "name": "IRIDIUM 33 DEB", "group": "iridium-33-debris", "lat": -49.24545907718525, "lon": 152.45181716515313, "alt_km": 663.2482983601412, "timestamp": "2025-12-09T09:46:48.030883+00:00", "meta": {"OBJECT_NAME": "IRIDIUM 33 DEB", "OBJECT_ID": "1997-051MY", "EPOCH": "2025-12-08T06:47:45.155328", "MEAN_MOTION": 14.66206819, "ECCENTRICITY": 0.00239488, "INCLINATION": 86.3293, "RA_OF_ASC_NODE": 328.6838, "ARG_OF_PERICENTER": 231.0822, "MEAN_ANOMALY": 187.3834, "EPHEMERIS_TYPE": 0, "CLASSIFICATION_TYPE": "U", "NORAD_CAT_ID": 34896, "ELEMENT_SET_NO": 999, "REV_AT_EPOCH": 87554, "BSTAR": 0.001338628, "MEAN_MOTION_DOT": 7.421e-05, "MEAN_MOTION_DDOT": 0}, "tle": {"line1": "1 34896U 97051MY  25342.28316152  .00007421  00000+0  13386-2 0  9992", "line2": "2 34896  86.3293 328.6838 0023948 231.0822 187.3834 14.66206819875541"}}, "geometry": {"type": "Point", "coordinates": [152.45181716515313, -49.24545907718525]}}, {"type": "Feature", "properties": {"norad_id": 34926, "name": "IRIDIUM 33 DEB", "group": "iridium-33-debris", "lat": 79.79247661347954, "lon": 167.74727982695487, "alt_km": 753.656631241799, "timestamp": "2025-12-09T09:46:48.030894+00:00", "meta": {"OBJECT_NAME": "IRIDIUM 33 DEB", "OBJECT_ID": "1997-051NF", "EPOCH": "2025-12-09T03:00:38.009088", "MEAN_MOTION": 14.54144924, "ECCENTRICITY": 0.0076003, "INCLINATION": 86.1319, "RA_OF_ASC_NODE": 9.9484, "ARG_OF_PERICENTER": 305.1684, "MEAN_ANOMALY": 118.2748, "EPHEMERIS_TYPE": 0, "CLASSIFICATION_TYPE": "U", "NORAD_CAT_ID": 34926, "ELEMENT_SET_NO": 999, "REV_AT_EPOCH": 86404, "BSTAR": 0.0063093, "MEAN_MOTION_DOT": 0.00027819, "MEAN_MOTION_DDOT": 0}, "tle": {"line1": "1 34926U 97051NF  25343.12543992  .00027819  00000+0  63093-2 0  9997", "line2": "2 34926  86.1319   9.9484 0076003 305.1684 118.2748 14.54144924864042"}}, "geometry": {"type": "Point", "coordinates": [167.74727982695487, 79.79247661347954]}}, {"type": "Feature", "properties": {"norad_id": 34985, "name": "IRIDIUM 33 DEB", "group": "iridium-33-debris", "lat": 11.360340469141374, "lon": 59.03172898253043, "alt_km": 764.5746569487719, "timestamp": "2025-12-09T09:46:48.030911+00:00", "meta": {"OBJECT_NAME": "IRIDIUM 33 DEB", "OBJECT_ID": "1997-051NR", "EPOCH": "2025-12-09T04:51:57.168864", "MEAN_MOTION": 14.41984633, "ECCENTRICITY": 0.0020369, "INCLINATION": 86.3692, "RA_OF_ASC_NODE": 58.3881, "ARG_OF_PERICENTER": 231.8923, "MEAN_ANOMALY": 157.2184, "EPHEMERIS_TYPE": 0, "CLASSIFICATION_TYPE": "U", "NORAD_CAT_ID": 34985, "ELEMENT_SET_NO": 999, "REV_AT_EPOCH": 87124, "BSTAR": 0.00086961, "MEAN_MOTION_DOT": 2.876e-05, "MEAN_MOTION_DDOT": 0}, "tle": {"line1": "1 34985U 97051NR  25343.20274501  .00002876  00000+0  86961-3 0  9994", "line2": "2 34985  86.3692  58.3881 0020369 231.8923 157.2184 14.41984633871249"}}, "geometry": {"type": "Point", "coordinates": [59.03172898253043, 11.360340469141374]}}, {"type": "Feature", "properties": {"norad_id": 35051, "name": "IRIDIUM 33 DEB", "group": "iridium-33-debris", "lat": -57.135159458971145, "lon": -163.97478419463664, "alt_km": 746.300568356608, "timestamp": "2025-12-09T09:46:48.030922+00:00", "meta": {"OBJECT_NAME": "IRIDIUM 33 DEB", "OBJECT_ID": "1997-051NX", "EPOCH": "2025-12-08T19:24:58.044960", "MEAN_MOTION": 14.47572985, "ECCENTRICITY": 0.00105834, "INCLINATION": 86.3244, "RA_OF_ASC_NODE": 10.5757, "ARG_OF_PERICENTER": 101.6319, "MEAN_ANOMALY": 258.6072, "EPHEMERIS_TYPE": 0, "CLASSIFICATION_TYPE": "U", "NORAD_CAT_ID": 35051, "ELEMENT_SET_NO": 999, "REV_AT_EPOCH": 86939, "BSTAR": 0.001137816, "MEAN_MOTION_DOT": 4.208e-05, "MEAN_MOTION_DDOT": 0}, "tle": {"line1": "1 35051U 97051NX  25342.80900515  .00004208  00000+0  11378-2 0  9995", "line2": "2 35051  86.3244  10.5757 0010583 101.6319 258.6072 14.47572985869393"}}, "geometry": {"type": "Point", "coordinates": [-163.97478419463664, -57.135159458971145]}}, {"type": "Feature", "properties": {"norad_id": 35052, "name": "IRIDIUM 33 DEB", "group": "iridium-33-debris", "lat": 44.41303482223438, "lon": -161.6988576975887, "alt_km": 752.4702843845762, "timestamp": "2025-12-09T09:46:48.030932+00:00", "meta": {"OBJECT_NAME": "IRIDIUM 33 DEB", "OBJECT_ID": "1997-051NY", "EPOCH": "2025-12-08T19:47:53.049120", "MEAN_MOTION": 14.38486321, "ECCENTRICITY": 0.00136868, "INCLINATION": 86.3313, "RA_OF_ASC_NODE": 22.1547, "ARG_OF_PERICENTER": 95.9359, "MEAN_ANOMALY": 264.34, "EPHEMERIS_TYPE": 0, "CLASSIFICATION_TYPE": "U", "NORAD_CAT_ID": 35052, "ELEMENT_SET_NO": 999, "REV_AT_EPOCH": 87219, "BSTAR": 0.00035523348, "MEAN_MOTION_DOT": 1.105e-05, "MEAN_MOTION_DDOT": 0}, "tle": {"line1": "1 35052U 97051NY  25342.82491955  .00001105  00000+0  35523-3 0  9993", "line2": "2 35052  86.3313  22.1547 0013686  95.9359 264.3400 14.38486321872192"}}, "geometry": {"type": "Point", "coordinates": [-161.6988576975887, 44.41303482223438]}}, {"type": "Feature", "properties": {"norad_id": 35080, "name": "IRIDIUM 33 DEB", "group": "iridium-33-debris", "lat": 75.88391088766829, "lon": -141.32957442327492, "alt_km": 603.8714588746707, "timestamp": "2025-12-09T09:46:48.030943+00:00", "meta": {"OBJECT_NAME": "IRIDIUM 33 DEB", "OBJECT_ID": "1997-051PF", "EPOCH": "2025-12-08T04:12:23.440320", "MEAN_MOTION": 14.85168488, "ECCENTRICITY": 0.00618555, "INCLINATION": 86.2067, "RA_OF_ASC_NODE": 54.5559, "ARG_OF_PERICENTER": 196.3675, "MEAN_ANOMALY": 163.5554, "EPHEMERIS_TYPE": 0, "CLASSIFICATION_TYPE": "U", "NORAD_CAT_ID": 35080, "ELEMENT_SET_NO": 999, "REV_AT_EPOCH": 69620, "BSTAR": 0.0097703177, "MEAN_MOTION_DOT": 0.00087525, "MEAN_MOTION_DDOT": 0}, "tle": {"line1": "1 35080U 97051PF  25342.17527130  .00087525  00000+0  97703-2 0  9994", "line2": "2 35080  86.2067  54.5559 0061855 196.3675 163.5554 14.85168488696207"}}, "geometry": {"type": "Point", "coordinates": [-141.32957442327492, 75.88391088766829]}}, {"type": "Feature", "properties": {"norad_id": 35297, "name": "IRIDIUM 33 DEB", "group": "iridium-33-debris", "lat": -37.481739953219034, "lon": 61.405181674644766, "alt_km": 760.0742384472678, "timestamp": "2025-12-09T09:46:48.030954+00:00", "meta": {"OBJECT_NAME": "IRIDIUM 33 DEB", "OBJECT_ID": "1997-051PM", "EPOCH": "2025-12-06T00:31:29.302752", "MEAN_MOTION": 14.45108459, "ECCENTRICITY": 0.00170329, "INCLINATION": 86.3867, "RA_OF_ASC_NODE": 65.6268, "ARG_OF_PERICENTER": 161.2449, "MEAN_ANOMALY": 198.9384, "EPHEMERIS_TYPE": 0, "CLASSIFICATION_TYPE": "U", "NORAD_CAT_ID": 35297, "ELEMENT_SET_NO": 999, "REV_AT_EPOCH": 70329, "BSTAR": 0.0012426888, "MEAN_MOTION_DOT": 4.371e-05, "MEAN_MOTION_DDOT": 0}, "tle": {"line1": "1 35297U 97051PM  25340.02186693  .00004371  00000+0  12427-2 0  9999", "line2": "2 35297  86.3867  65.6268 0017032 161.2449 198.9384 14.45108459703293"}}, "geometry": {"type": "Point", "coordinates": [61.405181674644766, -37.481739953219034]}}, {"type": "Feature", "properties": {"norad_id": 35299, "name": "IRIDIUM 33 DEB", "group": "iridium-33-debris", "lat": -53.285635831432174, "lon": 29.643174444967805, "alt_km": 803.639945727803, "timestamp": "2025-12-09T09:46:48.030965+00:00", "meta": {"OBJECT_NAME": "IRIDIUM 33 DEB", "OBJECT_ID": "1997-051PP", "EPOCH": "2025-12-09T03:37:25.281984", "MEAN_MOTION": 14.40832112, "ECCENTRICITY": 0.005889, "INCLINATION": 86.2882, "RA_OF_ASC_NODE": 34.7485, "ARG_OF_PERICENTER": 113.8076, "MEAN_ANOMALY": 303.2931, "EPHEMERIS_TYPE": 0, "CLASSIFICATION_TYPE": "U", "NORAD_CAT_ID": 35299, "ELEMENT_SET_NO": 999, "REV_AT_EPOCH": 86279, "BSTAR": 0.00094086, "MEAN_MOTION_DOT": 3.095e-05, "MEAN_MOTION_DDOT": 0}, "tle": {"line1": "1 35299U 97051PP  25343.15098706  .00003095  00000+0  94086-3 0  9999", "line2": "2 35299  86.2882  34.7485 0058890 113.8076 303.2931 14.40832112862790"}}, "geometry": {"type": "Point", "coordinates": [29.643174444967805, -53.285635831432174]}}]}